MALLIGYONG-1            
1 58400U 23179A   24218.50991742  .00009724  00000+0  43132-3 0  9990
2 58400  97.3967 104.5239 0002897  61.5759 298.5769 15.21788647 39224
